CTC1_L_00317016-03
1 10062U 22077VQ  26075.70033565  .00000000  00000+0  00000-0 0  9995
2 10062  80.0000 180.0000 0000000   0.0000   0.0000 14.60983543    12
CTC1_L_00317016-04
1 10063U 26666YE  26075.70033565  .00000000  00000+0  00000-0 0  9994
2 10063  80.0000 180.0000 0000000   0.0000  90.0000 14.60983543    12
CTC1_L_00317017-01
1 10064U 23182BQ  26075.70033565  .00000000  00000+0  00000-0 0  9995
2 10064  80.0000 192.0000 0000000   0.0000 192.0000 14.60983543    19
CTC1_L_00317017-02
1 10065U 24855DJ  26075.70033565  .00000000  00000+0  00000-0 0  9994
2 10065  80.0000 192.0000 0000000   0.0000 282.0000 14.60983543    10
CTC1_L_00317017-03
1 10066U 25734LI  26075.70033565  .00000000  00000+0  00000-0 0  9992
2 10066  80.0000 192.0000 0000000   0.0000  12.0000 14.60983543    12
CTC1_L_00317017-04
1 10067U 23681IP  26075.70033565  .00000000  00000+0  00000-0 0  9992
2 10067  80.0000 192.0000 0000000   0.0000 102.0000 14.60983543    13
CTC1_L_00317018-01
1 10068U 25501XG  26075.70033565  .00000000  00000+0  00000-0 0  9996
2 10068  80.0000 204.0000 0000000   0.0000 204.0000 14.60983543    11
CTC1_L_00317018-02
1 10069U 24046IP  26075.70033565  .00000000  00000+0  00000-0 0  9990
2 10069  80.0000 204.0000 0000000   0.0000 294.0000 14.60983543    11
CTC1_L_00317018-03
1 10070U 22700KK  26075.70033565  .00000000  00000+0  00000-0 0  9997
2 10070  80.0000 204.0000 0000000   0.0000  24.0000 14.60983543    14
CTC1_L_00317018-04
1 10071U 24462ZS  26075.70033565  .00000000  00000+0  00000-0 0  9995
2 10071  80.0000 204.0000 0000000   0.0000 114.0000 14.60983543    15
CTC1_L_00317019-01
1 10072U 23016WF  26075.70033565  .00000000  00000+0  00000-0 0  9990
2 10072  80.0000 216.0000 0000000   0.0000 216.0000 14.60983543    12
CTC1_L_00317019-02
1 10073U 25694IW  26075.70033565  .00000000  00000+0  00000-0 0  9995
2 10073  80.0000 216.0000 0000000   0.0000 306.0000 14.60983543    13
CTC1_L_00317019-03
1 10074U 23053CA  26075.70033565  .00000000  00000+0  00000-0 0  9993
2 10074  80.0000 216.0000 0000000   0.0000  36.0000 14.60983543    14
CTC1_L_00317019-04
1 10075U 22539IN  26075.70033565  .00000000  00000+0  00000-0 0  9992
2 10075  80.0000 216.0000 0000000   0.0000 126.0000 14.60983543    15
CTC1_L_00317020-01
1 10076U 23538DA  26075.70033565  .00000000  00000+0  00000-0 0  9993
2 10076  80.0000 228.0000 0000000   0.0000 228.0000 14.60983543    12
CTC1_L_00317020-02
1 10077U 26627PX  26075.70033565  .00000000  00000+0  00000-0 0  9996
2 10077  80.0000 228.0000 0000000   0.0000 318.0000 14.60983543    13
CTC1_L_00317020-03
1 10078U 25585XM  26075.70033565  .00000000  00000+0  00000-0 0  9999
2 10078  80.0000 228.0000 0000000   0.0000  48.0000 14.60983543    14
CTC1_L_00317020-04
1 10079U 23389FH  26075.70033565  .00000000  00000+0  00000-0 0  9990
2 10079  80.0000 228.0000 0000000   0.0000 138.0000 14.60983543    15
CTC1_L_00317021-01
1 10080U 24354WX  26075.70033565  .00000000  00000+0  00000-0 0  9995
2 10080  80.0000 240.0000 0000000   0.0000 240.0000 14.60983543    15
CTC1_L_00317021-02
1 10081U 26899TF  26075.70033565  .00000000  00000+0  00000-0 0  9992
2 10081  80.0000 240.0000 0000000   0.0000 330.0000 14.60983543    16
CTC1_L_00317021-03
1 10082U 24326LJ  26075.70033565  .00000000  00000+0  00000-0 0  9996
2 10082  80.0000 240.0000 0000000   0.0000  60.0000 14.60983543    17
CTC1_L_00317021-04
1 10083U 22934BF  26075.70033565  .00000000  00000+0  00000-0 0  9990
2 10083  80.0000 240.0000 0000000   0.0000 150.0000 14.60983543    18
CTC1_L_00317022-01
1 10084U 26447PE  26075.70033565  .00000000  00000+0  00000-0 0  9994
2 10084  80.0000 252.0000 0000000   0.0000 252.0000 14.60983543    15
CTC1_L_00317022-02
1 10085U 25545EK  26075.70033565  .00000000  00000+0  00000-0 0  9993
2 10085  80.0000 252.0000 0000000   0.0000 342.0000 14.60983543    16
CTC1_L_00317022-03
1 10086U 26277ZZ  26075.70033565  .00000000  00000+0  00000-0 0  9997
2 10086  80.0000 252.0000 0000000   0.0000  72.0000 14.60983543    17
CTC1_L_00317022-04
1 10087U 22971EV  26075.70033565  .00000000  00000+0  00000-0 0  9995
2 10087  80.0000 252.0000 0000000   0.0000 162.0000 14.60983543    18
CTC1_L_00317023-01
1 10088U 22932FK  26075.70033565  .00000000  00000+0  00000-0 0  9993
2 10088  80.0000 264.0000 0000000   0.0000 264.0000 14.60983543    15
CTC1_L_00317023-02
1 10089U 24458QV  26075.70033565  .00000000  00000+0  00000-0 0  9999
2 10089  80.0000 264.0000 0000000   0.0000 354.0000 14.60983543    16
CTC1_L_00317023-03
1 10090U 23357LJ  26075.70033565  .00000000  00000+0  00000-0 0  9998
2 10090  80.0000 264.0000 0000000   0.0000  84.0000 14.60983543    18
CTC1_L_00317023-04
1 10091U 24602FN  26075.70033565  .00000000  00000+0  00000-0 0  9993
2 10091  80.0000 264.0000 0000000   0.0000 174.0000 14.60983543    19
CTC1_L_00317024-01
1 10092U 26321HC  26075.70033565  .00000000  00000+0  00000-0 0  9994
2 10092  80.0000 276.0000 0000000   0.0000 276.0000 14.60983543    16
CTC1_L_00317024-02
1 10093U 26583ZT  26075.70033565  .00000000  00000+0  00000-0 0  9995
2 10093  80.0000 276.0000 0000000   0.0000   6.0000 14.60983543    18
CTC1_L_00317024-03
1 10094U 23074KG  26075.70033565  .00000000  00000+0  00000-0 0  9998
2 10094  80.0000 276.0000 0000000   0.0000  96.0000 14.60983543    18
CTC1_L_00317024-04
1 10095U 25711ZO  26075.70033565  .00000000  00000+0  00000-0 0  9999
2 10095  80.0000 276.0000 0000000   0.0000 186.0000 14.60983543    19
CTC1_L_00317025-01
1 10096U 24100GG  26075.70033565  .00000000  00000+0  00000-0 0  9991
2 10096  80.0000 288.0000 0000000   0.0000 288.0000 14.60983543    16
CTC1_L_00317025-02
1 10097U 25188AW  26075.70033565  .00000000  00000+0  00000-0 0  9999
2 10097  80.0000 288.0000 0000000   0.0000  18.0000 14.60983543    18
CTC1_L_00317025-03
1 10098U 24286GT  26075.70033565  .00000000  00000+0  00000-0 0  9998
2 10098  80.0000 288.0000 0000000   0.0000 108.0000 14.60983543    19
CTC1_L_00317025-04
1 10099U 25264JN  26075.70033565  .00000000  00000+0  00000-0 0  9996
2 10099  80.0000 288.0000 0000000   0.0000 198.0000 14.60983543    19
CTC1_L_00317026-01
1 10100U 22267ZZ  26075.70033565  .00000000  00000+0  00000-0 0  9999
2 10100  80.0000 300.0000 0000000   0.0000 300.0000 14.60983543    12
CTC1_L_00317026-02
1 10101U 24379AQ  26075.70033565  .00000000  00000+0  00000-0 0  9996
2 10101  80.0000 300.0000 0000000   0.0000  30.0000 14.60983543    13
CTC1_L_00317026-03
1 10102U 24165DL  26075.70033565  .00000000  00000+0  00000-0 0  9990
2 10102  80.0000 300.0000 0000000   0.0000 120.0000 14.60983543    14
CTC1_L_00317026-04
1 10103U 26932EH  26075.70033565  .00000000  00000+0  00000-0 0  9995
2 10103  80.0000 300.0000 0000000   0.0000 210.0000 14.60983543    15
CTC1_L_00317027-01
1 10104U 23502RN  26075.70033565  .00000000  00000+0  00000-0 0  9996
2 10104  80.0000 312.0000 0000000   0.0000 312.0000 14.60983543    12
CTC1_L_00317027-02
1 10105U 23061US  26075.70033565  .00000000  00000+0  00000-0 0  9997
2 10105  80.0000 312.0000 0000000   0.0000  42.0000 14.60983543    13
CTC1_L_00317027-03
1 10106U 26580XZ  26075.70033565  .00000000  00000+0  00000-0 0  9997
2 10106  80.0000 312.0000 0000000   0.0000 132.0000 14.60983543    14
CTC1_L_00317027-04
1 10107U 23529LN  26075.70033565  .00000000  00000+0  00000-0 0  9998
2 10107  80.0000 312.0000 0000000   0.0000 222.0000 14.60983543    15
CTC1_L_00317028-01
1 10108U 26338KW  26075.70033565  .00000000  00000+0  00000-0 0  9990
2 10108  80.0000 324.0000 0000000   0.0000 324.0000 14.60983543    12
CTC1_L_00317028-02
1 10109U 22390JR  26075.70033565  .00000000  00000+0  00000-0 0  9995
2 10109  80.0000 324.0000 0000000   0.0000  54.0000 14.60983543    13
CTC1_L_00317028-03
1 10110U 25935OH  26075.70033565  .00000000  00000+0  00000-0 0  9995
2 10110  80.0000 324.0000 0000000   0.0000 144.0000 14.60983543    15
CTC1_L_00317028-04
1 10111U 24675LH  26075.70033565  .00000000  00000+0  00000-0 0  9996
2 10111  80.0000 324.0000 0000000   0.0000 234.0000 14.60983543    16
CTC1_L_00317029-01
1 10112U 26423CH  26075.70033565  .00000000  00000+0  00000-0 0  9990
2 10112  80.0000 336.0000 0000000   0.0000 336.0000 14.60983543    13
CTC1_L_00317029-02
1 10113U 22681YQ  26075.70033565  .00000000  00000+0  00000-0 0  9993
2 10113  80.0000 336.0000 0000000   0.0000  66.0000 14.60983543    14
CTC1_L_00317029-03
1 10114U 23023AA  26075.70033565  .00000000  00000+0  00000-0 0  9995
2 10114  80.0000 336.0000 0000000   0.0000 156.0000 14.60983543    15
CTC1_L_00317029-04
1 10115U 23357M   26075.70033565  .00000000  00000+0  00000-0 0  9996
2 10115  80.0000 336.0000 0000000   0.0000 246.0000 14.60983543    16
CTC1_L_00317030-01
1 10116U 24309NZ  26075.70033565  .00000000  00000+0  00000-0 0  9995
2 10116  80.0000 348.0000 0000000   0.0000 348.0000 14.60983543    13
CTC1_L_00317030-02
1 10117U 26778XR  26075.70033565  .00000000  00000+0  00000-0 0  9998
2 10117  80.0000 348.0000 0000000   0.0000  78.0000 14.60983543    14
CTC1_L_00317030-03
1 10118U 24689BX  26075.70033565  .00000000  00000+0  00000-0 0  9998
2 10118  80.0000 348.0000 0000000   0.0000 168.0000 14.60983543    15
CTC1_L_00317030-04
1 10119U 22087TI  26075.70033565  .00000000  00000+0  00000-0 0  9999
2 10119  80.0000 348.0000 0000000   0.0000 258.0000 14.60983543    16
